CTC1_L_00522001-01
1 71030U 23466AG  26037.47807870  .00000000  00000+0  00000-0 0  9990
2 71030  98.4000   0.0000 0000000   0.0000   0.0000 14.42576027    13
CTC1_L_00522001-02
1 71031U 26959NT  26037.47807870  .00000000  00000+0  00000-0 0  9991
2 71031  98.4000   0.0000 0000000   0.0000  45.0000 14.42576027    13
CTC1_L_00522001-03
1 71032U 25784IH  26037.47807870  .00000000  00000+0  00000-0 0  9997
2 71032  98.4000   0.0000 0000000   0.0000  90.0000 14.42576027    14
CTC1_L_00522001-04
1 71033U 26838CW  26037.47807870  .00000000  00000+0  00000-0 0  9999
2 71033  98.4000   0.0000 0000000   0.0000 135.0000 14.42576027    15
CTC1_L_00522001-05
1 71034U 26799BT  26037.47807870  .00000000  00000+0  00000-0 0  9996
2 71034  98.4000   0.0000 0000000   0.0000 180.0000 14.42576027    16
CTC1_L_00522001-06
1 71035U 24985MT  26037.47807870  .00000000  00000+0  00000-0 0  9992
2 71035  98.4000   0.0000 0000000   0.0000 225.0000 14.42576027    17
CTC1_L_00522001-07
1 71036U 26702RC  26037.47807870  .00000000  00000+0  00000-0 0  9992
2 71036  98.4000   0.0000 0000000   0.0000 270.0000 14.42576027    18
CTC1_L_00522001-08
1 71037U 23004OZ  26037.47807870  .00000000  00000+0  00000-0 0  9995
2 71037  98.4000   0.0000 0000000   0.0000 315.0000 14.42576027    19
CTC1_L_00522002-01
1 71038U 26627JT  26037.47807870  .00000000  00000+0  00000-0 0  9990
2 71038  98.4000  12.0000 0000000   0.0000   6.0000 14.42576027    10
CTC1_L_00522002-02
1 71039U 25820ER  26037.47807870  .00000000  00000+0  00000-0 0  9995
2 71039  98.4000  12.0000 0000000   0.0000  51.0000 14.42576027    11
CTC1_L_00522002-03
1 71040U 22082WN  26037.47807870  .00000000  00000+0  00000-0 0  9994
2 71040  98.4000  12.0000 0000000   0.0000  96.0000 14.42576027    12
CTC1_L_00522002-04
1 71041U 23484ZK  26037.47807870  .00000000  00000+0  00000-0 0  9992
2 71041  98.4000  12.0000 0000000   0.0000 141.0000 14.42576027    14
CTC1_L_00522002-05
1 71042U 23869BW  26037.47807870  .00000000  00000+0  00000-0 0  9990
2 71042  98.4000  12.0000 0000000   0.0000 186.0000 14.42576027    14
CTC1_L_00522002-06
1 71043U 25732NL  26037.47807870  .00000000  00000+0  00000-0 0  9992
2 71043  98.4000  12.0000 0000000   0.0000 231.0000 14.42576027    16
CTC1_L_00522002-07
1 71044U 25752MT  26037.47807870  .00000000  00000+0  00000-0 0  9995
2 71044  98.4000  12.0000 0000000   0.0000 276.0000 14.42576027    16
CTC1_L_00522002-08
1 71045U 26280VU  26037.47807870  .00000000  00000+0  00000-0 0  9993
2 71045  98.4000  12.0000 0000000   0.0000 321.0000 14.42576027    18
CTC1_L_00522003-01
1 71046U 22353DK  26037.47807870  .00000000  00000+0  00000-0 0  9991
2 71046  98.4000  24.0000 0000000   0.0000  12.0000 14.42576027    19
CTC1_L_00522003-02
1 71047U 26467QU  26037.47807870  .00000000  00000+0  00000-0 0  9992
2 71047  98.4000  24.0000 0000000   0.0000  57.0000 14.42576027    19
CTC1_L_00522003-03
1 71048U 25341ZM  26037.47807870  .00000000  00000+0  00000-0 0  9993
2 71048  98.4000  24.0000 0000000   0.0000 102.0000 14.42576027    11
CTC1_L_00522003-04
1 71049U 22765OW  26037.47807870  .00000000  00000+0  00000-0 0  9991
2 71049  98.4000  24.0000 0000000   0.0000 147.0000 14.42576027    11
CTC1_L_00522003-05
1 71050U 22195OR  26037.47807870  .00000000  00000+0  00000-0 0  9990
2 71050  98.4000  24.0000 0000000   0.0000 192.0000 14.42576027    13
CTC1_L_00522003-06
1 71051U 24153TO  26037.47807870  .00000000  00000+0  00000-0 0  9997
2 71051  98.4000  24.0000 0000000   0.0000 237.0000 14.42576027    14
CTC1_L_00522003-07
1 71052U 22176KN  26037.47807870  .00000000  00000+0  00000-0 0  9991
2 71052  98.4000  24.0000 0000000   0.0000 282.0000 14.42576027    15
CTC1_L_00522003-08
1 71053U 22771HM  26037.47807870  .00000000  00000+0  00000-0 0  9993
2 71053  98.4000  24.0000 0000000   0.0000 327.0000 14.42576027    16
CTC1_L_00522004-01
1 71054U 26165CU  26037.47807870  .00000000  00000+0  00000-0 0  9995
2 71054  98.4000  36.0000 0000000   0.0000  18.0000 14.42576027    17
CTC1_L_00522004-02
1 71055U 26687BP  26037.47807870  .00000000  00000+0  00000-0 0  9995
2 71055  98.4000  36.0000 0000000   0.0000  63.0000 14.42576027    18
CTC1_L_00522004-03
1 71056U 26148VL  26037.47807870  .00000000  00000+0  00000-0 0  9998
2 71056  98.4000  36.0000 0000000   0.0000 108.0000 14.42576027    19
CTC1_L_00522004-04
1 71057U 25154PV  26037.47807870  .00000000  00000+0  00000-0 0  9995
2 71057  98.4000  36.0000 0000000   0.0000 153.0000 14.42576027    10
CTC1_L_00522004-05
1 71058U 22460UW  26037.47807870  .00000000  00000+0  00000-0 0  9993
2 71058  98.4000  36.0000 0000000   0.0000 198.0000 14.42576027    10
CTC1_L_00522004-06
1 71059U 23789EJ  26037.47807870  .00000000  00000+0  00000-0 0  9999
2 71059  98.4000  36.0000 0000000   0.0000 243.0000 14.42576027    12
CTC1_L_00522004-07
1 71060U 22518PI  26037.47807870  .00000000  00000+0  00000-0 0  9990
2 71060  98.4000  36.0000 0000000   0.0000 288.0000 14.42576027    13
CTC1_L_00522004-08
1 71061U 25189WK  26037.47807870  .00000000  00000+0  00000-0 0  9998
2 71061  98.4000  36.0000 0000000   0.0000 333.0000 14.42576027    15
CTC1_L_00522005-01
1 71062U 22607AF  26037.47807870  .00000000  00000+0  00000-0 0  9991
2 71062  98.4000  48.0000 0000000   0.0000  24.0000 14.42576027    16
CTC1_L_00522005-02
1 71063U 24629ZP  26037.47807870  .00000000  00000+0  00000-0 0  9998
2 71063  98.4000  48.0000 0000000   0.0000  69.0000 14.42576027    16
CTC1_L_00522005-03
1 71064U 26561FR  26037.47807870  .00000000  00000+0  00000-0 0  9996
2 71064  98.4000  48.0000 0000000   0.0000 114.0000 14.42576027    18
CTC1_L_00522005-04
1 71065U 26059H   26037.47807870  .00000000  00000+0  00000-0 0  9999
2 71065  98.4000  48.0000 0000000   0.0000 159.0000 14.42576027    18
CTC1_L_00522005-05
1 71066U 22181TI  26037.47807870  .00000000  00000+0  00000-0 0  9992
2 71066  98.4000  48.0000 0000000   0.0000 204.0000 14.42576027    10
CTC1_L_00522005-06
1 71067U 25795HT  26037.47807870  .00000000  00000+0  00000-0 0  9997
2 71067  98.4000  48.0000 0000000   0.0000 249.0000 14.42576027    10
CTC1_L_00522005-07
1 71068U 26171DJ  26037.47807870  .00000000  00000+0  00000-0 0  9997
2 71068  98.4000  48.0000 0000000   0.0000 294.0000 14.42576027    11
CTC1_L_00522005-08
1 71069U 23070KP  26037.47807870  .00000000  00000+0  00000-0 0  9993
2 71069  98.4000  48.0000 0000000   0.0000 339.0000 14.42576027    12
CTC1_L_00522006-01
1 71070U 25487JH  26037.47807870  .00000000  00000+0  00000-0 0  9999
2 71070  98.4000  60.0000 0000000   0.0000  30.0000 14.42576027    16
CTC1_L_00522006-02
1 71071U 26349ZL  26037.47807870  .00000000  00000+0  00000-0 0  9998
2 71071  98.4000  60.0000 0000000   0.0000  75.0000 14.42576027    16
CTC1_L_00522006-03
1 71072U 23435AY  26037.47807870  .00000000  00000+0  00000-0 0  9992
2 71072  98.4000  60.0000 0000000   0.0000 120.0000 14.42576027    18
CTC1_L_00522006-04
1 71073U 25946PL  26037.47807870  .00000000  00000+0  00000-0 0  9992
2 71073  98.4000  60.0000 0000000   0.0000 165.0000 14.42576027    18
CTC1_L_00522006-05
1 71074U 24721RQ  26037.47807870  .00000000  00000+0  00000-0 0  9993
2 71074  98.4000  60.0000 0000000   0.0000 210.0000 14.42576027    10
CTC1_L_00522006-06
1 71075U 22565OI  26037.47807870  .00000000  00000+0  00000-0 0  9998
2 71075  98.4000  60.0000 0000000   0.0000 255.0000 14.42576027    10
CTC1_L_00522006-07
1 71076U 24899NF  26037.47807870  .00000000  00000+0  00000-0 0  9991
2 71076  98.4000  60.0000 0000000   0.0000 300.0000 14.42576027    12
CTC1_L_00522006-08
1 71077U 25465JE  26037.47807870  .00000000  00000+0  00000-0 0  9992
2 71077  98.4000  60.0000 0000000   0.0000 345.0000 14.42576027    12
CTC1_L_00522007-01
1 71078U 26502KM  26037.47807870  .00000000  00000+0  00000-0 0  9996
2 71078  98.4000  72.0000 0000000   0.0000  36.0000 14.42576027    13
CTC1_L_00522007-02
1 71079U 26321MA  26037.47807870  .00000000  00000+0  00000-0 0  9996
2 71079  98.4000  72.0000 0000000   0.0000  81.0000 14.42576027    14
CTC1_L_00522007-03
1 71080U 25106PC  26037.47807870  .00000000  00000+0  00000-0 0  9998
2 71080  98.4000  72.0000 0000000   0.0000 126.0000 14.42576027    16
CTC1_L_00522007-04
1 71081U 26102MT  26037.47807870  .00000000  00000+0  00000-0 0  9996
2 71081  98.4000  72.0000 0000000   0.0000 171.0000 14.42576027    17
CTC1_L_00522007-05
1 71082U 25058IE  26037.47807870  .00000000  00000+0  00000-0 0  9996
2 71082  98.4000  72.0000 0000000   0.0000 216.0000 14.42576027    18
CTC1_L_00522007-06
1 71083U 24419KE  26037.47807870  .00000000  00000+0  00000-0 0  9997
2 71083  98.4000  72.0000 0000000   0.0000 261.0000 14.42576027    19
CTC1_L_00522007-07
1 71084U 24893N   26037.47807870  .00000000  00000+0  00000-0 0  9994
2 71084  98.4000  72.0000 0000000   0.0000 306.0000 14.42576027    10
CTC1_L_00522007-08
1 71085U 24944FR  26037.47807870  .00000000  00000+0  00000-0 0  9992
2 71085  98.4000  72.0000 0000000   0.0000 351.0000 14.42576027    11
CTC1_L_00522008-01
1 71086U 23412OM  26037.47807870  .00000000  00000+0  00000-0 0  9992
2 71086  98.4000  84.0000 0000000   0.0000  42.0000 14.42576027    12
CTC1_L_00522008-02
1 71087U 23427XW  26037.47807870  .00000000  00000+0  00000-0 0  9999
2 71087  98.4000  84.0000 0000000   0.0000  87.0000 14.42576027    12
CTC1_L_00522008-03
1 71088U 26067FU  26037.47807870  .00000000  00000+0  00000-0 0  9993
2 71088  98.4000  84.0000 0000000   0.0000 132.0000 14.42576027    14
CTC1_L_00522008-04
1 71089U 26885NM  26037.47807870  .00000000  00000+0  00000-0 0  9992
2 71089  98.4000  84.0000 0000000   0.0000 177.0000 14.42576027    14
CTC1_L_00522008-05
1 71090U 25819CK  26037.47807870  .00000000  00000+0  00000-0 0  9990
2 71090  98.4000  84.0000 0000000   0.0000 222.0000 14.42576027    17
CTC1_L_00522008-06
1 71091U 25349MQ  26037.47807870  .00000000  00000+0  00000-0 0  9999
2 71091  98.4000  84.0000 0000000   0.0000 267.0000 14.42576027    17
